start=new Date('2022-01-23T00:00:00.000Z').valueOf();
sats=[{"EPHEMERIS_TYPE":"0","SITE":"AFETR","ELEMENT_SET_NO":"999","FILE":"3280242","PERIOD":"95.591","OBJECT_NAME":"STARLINK-2155","REV_AT_EPOCH":"3848","CENTER_NAME":"EARTH","CLASSIFICATION_TYPE":"U","APOAPSIS":"547.883","OBJECT_ID":"2021-041E","RA_OF_ASC_NODE":"57.6416","MEAN_MOTION_DOT":"-0.00004783","COUNTRY_CODE":"US","MEAN_MOTION":"15.06417767","GP_ID":"194401989","TIME_SYSTEM":"UTC","ARG_OF_PERICENTER":"88.8116","SEMIMAJOR_AXIS":"6925.294","PERIAPSIS":"546.435","MEAN_ELEMENT_THEORY":"SGP4","TLE_LINE1":"1 48557U 21041E   22022.50547031 -.00004783  00000-0 -30227-3 0  9991","BSTAR":"-0.00030227000000","DECAY_DATE":null,"MEAN_MOTION_DDOT":"0.0000000000000","LAUNCH_DATE":"2021-05-15","INCLINATION":"53.0553","EPOCH":"2022-01-22T12:07:52.634784","MEAN_ANOMALY":"271.2993","OBJECT_TYPE":"PAYLOAD","NORAD_CAT_ID":"48557","REF_FRAME":"TEME","TLE_LINE2":"2 48557  53.0553  57.6416 0001045  88.8116 271.2993 15.06417767 38483","RCS_SIZE":"LARGE","ECCENTRICITY":"0.00010450"},{"RA_OF_ASC_NODE":"57.9381","MEAN_MOTION_DOT":"0.00001190","COUNTRY_CODE":"US","MEAN_MOTION":"15.06405308","REV_AT_EPOCH":"3802","CENTER_NAME":"EARTH","CLASSIFICATION_TYPE":"U","OBJECT_ID":"2021-041AB","APOAPSIS":"548.149","PERIOD":"95.592","OBJECT_NAME":"STARLINK-2232","EPHEMERIS_TYPE":"0","SITE":"AFETR","ELEMENT_SET_NO":"999","FILE":"3280062","ECCENTRICITY":"0.00013740","LAUNCH_DATE":"2021-05-15","EPOCH":"2022-01-22T10:31:00.698592","INCLINATION":"53.0571","MEAN_ANOMALY":"283.9303","OBJECT_TYPE":"PAYLOAD","NORAD_CAT_ID":"48578","REF_FRAME":"TEME","TLE_LINE2":"2 48578  53.0571  57.9381 0001374  76.1839 283.9303 15.06405308 38020","RCS_SIZE":"LARGE","PERIAPSIS":"546.246","MEAN_ELEMENT_THEORY":"SGP4","TLE_LINE1":"1 48578U 21041AB  22022.43820253  .00001190  00000-0  98765-4 0  9995","BSTAR":"0.00009876500000","MEAN_MOTION_DDOT":"0.0000000000000","DECAY_DATE":null,"GP_ID":"194397045","TIME_SYSTEM":"UTC","ARG_OF_PERICENTER":"76.1839","SEMIMAJOR_AXIS":"6925.332"},{"RA_OF_ASC_NODE":"42.8533","MEAN_MOTION_DOT":"0.00000805","MEAN_MOTION":"15.06403307","COUNTRY_CODE":"US","REV_AT_EPOCH":"3949","CENTER_NAME":"EARTH","APOAPSIS":"548.238","OBJECT_ID":"2021-041BB","CLASSIFICATION_TYPE":"U","PERIOD":"95.592","OBJECT_NAME":"STARLINK-2713","EPHEMERIS_TYPE":"0","ELEMENT_SET_NO":"999","SITE":"AFETR","FILE":"3280062","ECCENTRICITY":"0.00014940","LAUNCH_DATE":"2021-05-15","MEAN_ANOMALY":"290.2781","OBJECT_TYPE":"PAYLOAD","INCLINATION":"53.0530","EPOCH":"2022-01-22T10:58:14.944224","TLE_LINE2":"2 48602  53.0530  42.8533 0001494  69.8369 290.2781 15.06403307 39495","REF_FRAME":"TEME","NORAD_CAT_ID":"48602","RCS_SIZE":"LARGE","PERIAPSIS":"546.169","MEAN_ELEMENT_THEORY":"SGP4","TLE_LINE1":"1 48602U 21041BB  22022.45711741  .00000805  00000-0  72916-4 0  9998","MEAN_MOTION_DDOT":"0.0000000000000","DECAY_DATE":null,"BSTAR":"0.00007291600000","GP_ID":"194396797","TIME_SYSTEM":"UTC","SEMIMAJOR_AXIS":"6925.338","ARG_OF_PERICENTER":"69.8369"},{"ELEMENT_SET_NO":"999","SITE":"AFETR","FILE":"3279828","EPHEMERIS_TYPE":"0","OBJECT_NAME":"STARLINK-2758","PERIOD":"95.593","CENTER_NAME":"EARTH","APOAPSIS":"548.179","OBJECT_ID":"2021-044A","CLASSIFICATION_TYPE":"U","REV_AT_EPOCH":"3750","MEAN_MOTION":"15.06391815","COUNTRY_CODE":"US","RA_OF_ASC_NODE":"42.8501","MEAN_MOTION_DOT":"0.00000769","SEMIMAJOR_AXIS":"6925.374","ARG_OF_PERICENTER":"83.9769","GP_ID":"194367843","TIME_SYSTEM":"UTC","TLE_LINE1":"1 48638U 21044A   22022.45616625  .00000769  00000-0  70543-4 0  9998","DECAY_DATE":null,"MEAN_MOTION_DDOT":"0.0000000000000","BSTAR":"0.00007054300000","PERIAPSIS":"546.298","MEAN_ELEMENT_THEORY":"SGP4","TLE_LINE2":"2 48638  53.0570  42.8501 0001358  83.9769 276.1375 15.06391815 37505","REF_FRAME":"TEME","NORAD_CAT_ID":"48638","RCS_SIZE":"LARGE","LAUNCH_DATE":"2021-05-26","MEAN_ANOMALY":"276.1375","OBJECT_TYPE":"PAYLOAD","EPOCH":"2022-01-22T10:56:52.764000","INCLINATION":"53.0570","ECCENTRICITY":"0.00013580"},{"LAUNCH_DATE":"2021-05-26","EPOCH":"2022-01-22T10:45:38.568384","INCLINATION":"53.0569","OBJECT_TYPE":"PAYLOAD","MEAN_ANOMALY":"289.8798","REF_FRAME":"TEME","NORAD_CAT_ID":"48662","TLE_LINE2":"2 48662  53.0569  37.8940 0001525  70.2355 289.8798 15.06407460 36678","RCS_SIZE":"LARGE","ECCENTRICITY":"0.00015250","GP_ID":"194397305","TIME_SYSTEM":"UTC","ARG_OF_PERICENTER":"70.2355","SEMIMAJOR_AXIS":"6925.326","PERIAPSIS":"546.135","MEAN_ELEMENT_THEORY":"SGP4","TLE_LINE1":"1 48662U 21044AA  22022.44836306  .00002206  00000-0  16689-3 0  9992","BSTAR":"0.00016689000000","DECAY_DATE":null,"MEAN_MOTION_DDOT":"0.0000000000000","REV_AT_EPOCH":"3667","CENTER_NAME":"EARTH","CLASSIFICATION_TYPE":"U","APOAPSIS":"548.247","OBJECT_ID":"2021-044AA","RA_OF_ASC_NODE":"37.8940","MEAN_MOTION_DOT":"0.00002206","COUNTRY_CODE":"US","MEAN_MOTION":"15.06407460","EPHEMERIS_TYPE":"0","SITE":"AFETR","ELEMENT_SET_NO":"999","FILE":"3280062","PERIOD":"95.592","OBJECT_NAME":"STARLINK-2726"},{"BSTAR":"0.00013057000000","MEAN_MOTION_DDOT":"0.0000000000000","DECAY_DATE":null,"TLE_LINE1":"1 48665U 21044AD  22022.25574699  .00001664  00000-0  13057-3 0  9991","MEAN_ELEMENT_THEORY":"SGP4","PERIAPSIS":"546.126","ARG_OF_PERICENTER":"65.0972","SEMIMAJOR_AXIS":"6925.343","TIME_SYSTEM":"UTC","GP_ID":"194396554","ECCENTRICITY":"0.00015630","RCS_SIZE":"LARGE","NORAD_CAT_ID":"48665","REF_FRAME":"TEME","TLE_LINE2":"2 48665  53.0569  38.7546 0001563  65.0972 295.0179 15.06401776 36645","EPOCH":"2022-01-22T06:08:16.539936","INCLINATION":"53.0569","OBJECT_TYPE":"PAYLOAD","MEAN_ANOMALY":"295.0179","LAUNCH_DATE":"2021-05-26","OBJECT_NAME":"STARLINK-2653","PERIOD":"95.592","FILE":"3280062","SITE":"AFETR","ELEMENT_SET_NO":"999","EPHEMERIS_TYPE":"0","COUNTRY_CODE":"US","MEAN_MOTION":"15.06401776","MEAN_MOTION_DOT":"0.00001664","RA_OF_ASC_NODE":"38.7546","CLASSIFICATION_TYPE":"U","APOAPSIS":"548.291","OBJECT_ID":"2021-044AD","CENTER_NAME":"EARTH","REV_AT_EPOCH":"3664"},{"MEAN_MOTION":"15.66572722","COUNTRY_CODE":"US","MEAN_MOTION_DOT":"-0.00663468","RA_OF_ASC_NODE":"119.2051","OBJECT_ID":"2021-082AE","APOAPSIS":"370.986","CLASSIFICATION_TYPE":"U","CENTER_NAME":"EARTH","REV_AT_EPOCH":"2172","OBJECT_NAME":"STARLINK-3083","PERIOD":"91.920","FILE":"3280137","ELEMENT_SET_NO":"999","SITE":"AFWTR","EPHEMERIS_TYPE":"0","ECCENTRICITY":"0.00033560","RCS_SIZE":"LARGE","TLE_LINE2":"2 49158  69.9998 119.2051 0003356 270.3179 293.9173 15.66572722 21723","NORAD_CAT_ID":"49158","REF_FRAME":"TEME","OBJECT_TYPE":"PAYLOAD","MEAN_ANOMALY":"293.9173","EPOCH":"2022-01-22T22:00:00.999936","INCLINATION":"69.9998","LAUNCH_DATE":"2021-09-14","DECAY_DATE":null,"MEAN_MOTION_DDOT":"0.0000000000000","BSTAR":"-0.00684460000000","TLE_LINE1":"1 49158U 21082AE  22022.91667824 -.00663468  00000-0 -68446-2 0  9996","MEAN_ELEMENT_THEORY":"SGP4","PERIAPSIS":"366.457","SEMIMAJOR_AXIS":"6746.856","ARG_OF_PERICENTER":"270.3179","TIME_SYSTEM":"UTC","GP_ID":"194399891"},{"OBJECT_NAME":"STARLINK-3194","PERIOD":"93.475","FILE":"3280298","ELEMENT_SET_NO":"999","SITE":"AFETR","EPHEMERIS_TYPE":"0","MEAN_MOTION":"15.40515985","COUNTRY_CODE":"US","MEAN_MOTION_DOT":"-0.00003925","RA_OF_ASC_NODE":"77.1462","APOAPSIS":"446.697","OBJECT_ID":"2021-115AL","CLASSIFICATION_TYPE":"U","CENTER_NAME":"EARTH","REV_AT_EPOCH":"911","MEAN_MOTION_DDOT":"0.0000000000000","DECAY_DATE":null,"BSTAR":"-0.00008548400000","TLE_LINE1":"1 49758U 21115AL  22022.91667824 -.00003925  00000-0 -85484-4 0  9998","PERIAPSIS":"442.478","MEAN_ELEMENT_THEORY":"SGP4","SEMIMAJOR_AXIS":"6822.722","ARG_OF_PERICENTER":"16.4932","TIME_SYSTEM":"UTC","GP_ID":"194403516","ECCENTRICITY":"0.00030920","RCS_SIZE":"LARGE","TLE_LINE2":"2 49758  53.2168  77.1462 0003092  16.4932 162.4647 15.40515985  9110","NORAD_CAT_ID":"49758","REF_FRAME":"TEME","OBJECT_TYPE":"PAYLOAD","MEAN_ANOMALY":"162.4647","EPOCH":"2022-01-22T22:00:00.999936","INCLINATION":"53.2168","LAUNCH_DATE":"2021-12-02"},{"ECCENTRICITY":"0.00027250","MEAN_ANOMALY":"156.8978","OBJECT_TYPE":"PAYLOAD","EPOCH":"2022-01-22T22:00:00.999936","INCLINATION":"53.2167","LAUNCH_DATE":"2021-12-02","RCS_SIZE":"MEDIUM","TLE_LINE2":"2 49760  53.2167  77.1498 0002725  19.9501 156.8978 15.40511612  9110","NORAD_CAT_ID":"49760","REF_FRAME":"TEME","MEAN_ELEMENT_THEORY":"SGP4","PERIAPSIS":"442.741","DECAY_DATE":null,"MEAN_MOTION_DDOT":"0.0000000000000","BSTAR":"0.00022840000000","TLE_LINE1":"1 49760U 21115AN  22022.91667824  .00009015  00000-0  22840-3 0  9991","TIME_SYSTEM":"UTC","GP_ID":"194403675","SEMIMAJOR_AXIS":"6822.735","ARG_OF_PERICENTER":"19.9501","MEAN_MOTION_DOT":"0.00009015","RA_OF_ASC_NODE":"77.1498","MEAN_MOTION":"15.40511612","COUNTRY_CODE":"US","REV_AT_EPOCH":"911","APOAPSIS":"446.460","OBJECT_ID":"2021-115AN","CLASSIFICATION_TYPE":"U","CENTER_NAME":"EARTH","PERIOD":"93.475","OBJECT_NAME":"STARLINK-3199","EPHEMERIS_TYPE":"0","FILE":"3280298","ELEMENT_SET_NO":"999","SITE":"AFETR"},{"RA_OF_ASC_NODE":"77.1622","MEAN_MOTION_DOT":"-0.00001123","MEAN_MOTION":"15.40513571","COUNTRY_CODE":"US","REV_AT_EPOCH":"911","CENTER_NAME":"EARTH","APOAPSIS":"446.742","OBJECT_ID":"2021-115AW","CLASSIFICATION_TYPE":"U","PERIOD":"93.475","OBJECT_NAME":"STARLINK-3196","EPHEMERIS_TYPE":"0","ELEMENT_SET_NO":"999","SITE":"AFETR","FILE":"3280298","ECCENTRICITY":"0.00031480","LAUNCH_DATE":"2021-12-02","OBJECT_TYPE":"PAYLOAD","MEAN_ANOMALY":"159.3884","EPOCH":"2022-01-22T22:00:00.999936","INCLINATION":"53.2162","TLE_LINE2":"2 49768  53.2162  77.1622 0003148  10.1122 159.3884 15.40513571  9114","NORAD_CAT_ID":"49768","REF_FRAME":"TEME","RCS_SIZE":"LARGE","PERIAPSIS":"442.447","MEAN_ELEMENT_THEORY":"SGP4","TLE_LINE1":"1 49768U 21115AW  22022.91667824 -.00001123  00000-0 -17445-4 0  9999","MEAN_MOTION_DDOT":"0.0000000000000","DECAY_DATE":null,"BSTAR":"-0.00001744500000","GP_ID":"194403661","TIME_SYSTEM":"UTC","SEMIMAJOR_AXIS":"6822.730","ARG_OF_PERICENTER":"10.1122"}];
